{"fetched_at":"2026-03-29T02:12:04Z","count":15717,"tles":[{"name":"TERRASAR-X","line1":"1 31698U 07026A   26086.51505740  .00001049  00000+0  53149-4 0  9990","line2":"2 31698  97.4468  95.3860 0001978  86.5295 273.6166 15.19152189 40825","category":"Other"}]}